STARLINK-4434           
1 53501U 22099AN  26068.87023785  .00000490  00000+0  42661-4 0  9993
2 53501  97.6017 190.4041 0003252  88.8351 271.3246 15.01260791196014
KUIPER-00139            
1 65765U 25217D   26068.30974975  .00011274  00000+0  87196-3 0  9990
2 65765  51.8865  35.5400 0007119 318.9010  41.1425 15.01890214 24959
