[{"OBJECT_NAME":"STARLINK-4434","OBJECT_ID":"2022-099AN","EPOCH":"2026-03-09T20:53:08.550240","MEAN_MOTION":15.01260791,"ECCENTRICITY":0.00032518,"INCLINATION":97.6017,"RA_OF_ASC_NODE":190.4041,"ARG_OF_PERICENTER":88.8351,"MEAN_ANOMALY":271.3246,"EPHEMERIS_TYPE":0,"CLASSIFICATION_TYPE":"U","NORAD_CAT_ID":53501,"ELEMENT_SET_NO":999,"REV_AT_EPOCH":19601,"BSTAR":4.2660868e-5,"MEAN_MOTION_DOT":4.9e-6,"MEAN_MOTION_DDOT":0},{"OBJECT_NAME":"KUIPER-00139","OBJECT_ID":"2025-217D","EPOCH":"2026-03-09T07:26:02.378400","MEAN_MOTION":15.01890214,"ECCENTRICITY":0.00071199,"INCLINATION":51.8865,"RA_OF_ASC_NODE":35.54,"ARG_OF_PERICENTER":318.901,"MEAN_ANOMALY":41.1425,"EPHEMERIS_TYPE":0,"CLASSIFICATION_TYPE":"U","NORAD_CAT_ID":65765,"ELEMENT_SET_NO":999,"REV_AT_EPOCH":2495,"BSTAR":0.00087196011,"MEAN_MOTION_DOT":0.00011274,"MEAN_MOTION_DDOT":0}]
